{
    "links": {
        "self": "http://www.neowsapp.com/rest/v1/neo/3761268?api_key=iIulBulltgU6a56xZRHN4H3l9WmuAYTsLGpBGhQ2"
    },
    "id": "3761268",
    "neo_reference_id": "3761268",
    "name": "(2016 UT4)",
    "designation": "2016 UT4",
    "nasa_jpl_url": "http://ssd.jpl.nasa.gov/sbdb.cgi?sstr=3761268",
    "absolute_magnitude_h": 22.3,
    "estimated_diameter": {
        "kilometers": {
            "estimated_diameter_min": 0.0921626549,
            "estimated_diameter_max": 0.2060819612
        },
        "meters": {
            "estimated_diameter_min": 92.1626548503,
            "estimated_diameter_max": 206.0819612321
        },
        "miles": {
            "estimated_diameter_min": 0.057267201,
            "estimated_diameter_max": 0.1280533543
        },
        "feet": {
            "estimated_diameter_min": 302.370924539,
            "estimated_diameter_max": 676.1219416887
        }
    },
    "is_potentially_hazardous_asteroid": false,
    "close_approach_data": [
        {
            "close_approach_date": "2016-10-08",
            "close_approach_date_full": "2016-Oct-08 23:44",
            "epoch_date_close_approach": 1475970240000,
            "relative_velocity": {
                "kilometers_per_second": "9.1776314993",
                "kilometers_per_hour": "33039.4733974926",
                "miles_per_hour": "20529.443900792"
            },
            "miss_distance": {
                "astronomical": "0.0754777068",
                "lunar": "29.3608279452",
                "kilometers": "11291304.169764516",
                "miles": "7016091.0706256808"
            },
            "orbiting_body": "Earth"
        },
        {
            "close_approach_date": "2019-07-25",
            "close_approach_date_full": "2019-Jul-25 08:01",
            "epoch_date_close_approach": 1564041660000,
            "relative_velocity": {
                "kilometers_per_second": "14.2999392012",
                "kilometers_per_hour": "51479.7811243322",
                "miles_per_hour": "31987.5339991719"
            },
            "miss_distance": {
                "astronomical": "0.241657647",
                "lunar": "94.004824683",
                "kilometers": "36151469.26041189",
                "miles": "22463481.352948482"
            },
            "orbiting_body": "Earth"
        },
        {
            "close_approach_date": "2054-11-08",
            "close_approach_date_full": "2054-Nov-08 20:35",
            "epoch_date_close_approach": 2677782900000,
            "relative_velocity": {
                "kilometers_per_second": "21.4234566561",
                "kilometers_per_hour": "77124.4439621267",
                "miles_per_hour": "47922.1301941337"
            },
            "miss_distance": {
                "astronomical": "0.4723963607",
                "lunar": "183.7621843123",
                "kilometers": "70669489.356471709",
                "miles": "43911984.4603352242"
            },
            "orbiting_body": "Earth"
        },
        {
            "close_approach_date": "2060-07-25",
            "close_approach_date_full": "2060-Jul-25 02:53",
            "epoch_date_close_approach": 2857949580000,
            "relative_velocity": {
                "kilometers_per_second": "14.1671792005",
                "kilometers_per_hour": "51001.8451216243",
                "miles_per_hour": "31690.5631534893"
            },
            "miss_distance": {
                "astronomical": "0.2338668131",
                "lunar": "90.9741902959",
                "kilometers": "34985977.103448097",
                "miles": "21739278.1083618586"
            },
            "orbiting_body": "Earth"
        },
        {
            "close_approach_date": "2148-08-04",
            "close_approach_date_full": "2148-Aug-04 11:23",
            "epoch_date_close_approach": 5635826580000,
            "relative_velocity": {
                "kilometers_per_second": "11.5271005375",
                "kilometers_per_hour": "41497.5619350619",
                "miles_per_hour": "25784.9711923722"
            },
            "miss_distance": {
                "astronomical": "0.1642133656",
                "lunar": "63.8789992184",
                "kilometers": "24565969.719291272",
                "miles": "15264585.7553206736"
            },
            "orbiting_body": "Earth"
        }
    ],
    "orbital_data": {
        "orbit_id": "15",
        "orbit_determination_date": "2019-07-22 06:09:20",
        "first_observation_date": "2016-10-08",
        "last_observation_date": "2016-11-19",
        "data_arc_in_days": 42,
        "observations_used": 117,
        "orbit_uncertainty": "6",
        "minimum_orbit_intersection": ".0121102",
        "jupiter_tisserand_invariant": "3.623",
        "epoch_osculation": "2459000.5",
        "eccentricity": ".5044509391629259",
        "semi_major_axis": "2.047414258107651",
        "inclination": "2.899780701977864",
        "ascending_node_longitude": "359.8511129887361",
        "orbital_period": "1070.057245262132",
        "perihelion_distance": "1.014594212749681",
        "perihelion_argument": "349.3596407710882",
        "aphelion_distance": "3.080234303465621",
        "perihelion_time": "2458720.508916713899",
        "mean_anomaly": "94.19756786778646",
        "mean_motion": ".336430599011374",
        "equinox": "J2000",
        "orbit_class": {
            "orbit_class_type": "APO",
            "orbit_class_description": "Near-Earth asteroid orbits which cross the Earth’s orbit similar to that of 1862 Apollo",
            "orbit_class_range": "a (semi-major axis) > 1.0 AU; q (perihelion) < 1.017 AU"
        }
    },
    "is_sentry_object": false
}